H1 CPF  1  DGF 2022 08 22 11  7341 larets     NONE      
H2   304206 5557    27944 2022 08 22 00 00 00 2022 08 29 00 00 00    30 1 1  0 0 0
H5  0.0650
H9
10 0 59818  43200.000000  0      -3387638.823      -1114082.228       6076146.748
10 0 59818  43230.000000  0      -3230507.454       -987467.428       6182456.753
10 0 59818  43260.000000  0      -3069535.473       -860544.102       6282431.764
10 0 59818  43290.000000  0      -2904885.881       -733457.886       6375969.935
10 0 59818  43320.000000  0      -2736726.022       -606353.828       6462976.035
10 0 59818  43350.000000  0      -2565227.411       -479376.227       6543361.545
10 0 59818  43380.000000  0      -2390565.548       -352668.468       6617044.737
10 0 59818  43410.000000  0      -2212919.739       -226372.864       6683950.754
10 0 59818  43440.000000  0      -2032472.906       -100630.491       6744011.683
10 0 59818  43470.000000  0      -1849411.392         24418.962       6797166.617
10 0 59818  43500.000000  0      -1663924.773        148637.356       6843361.716
10 0 59818  43530.000000  0      -1476205.652        271888.250       6882550.258
10 0 59818  43560.000000  0      -1286449.457        394037.053       6914692.682
10 0 59818  43590.000000  0      -1094854.241        514951.176       6939756.625
10 0 59818  43620.000000  0       -901620.463        634500.167       6957716.955
10 0 59818  43650.000000  0       -706950.783        752555.864       6968555.788
10 0 59818  43680.000000  0       -511049.845        868992.521       6972262.506
10 0 59818  43710.000000  0       -314124.062        983686.954       6968833.767
10 0 59818  43740.000000  0       -116381.394       1096518.662       6958273.506
10 0 59818  43770.000000  0         81968.869       1207369.962       6940592.931
10 0 59818  43800.000000  0        280716.334       1316126.110       6915810.510
10 0 59818  43830.000000  0        479649.733       1422675.422       6883951.951
10 0 59818  43860.000000  0        678557.145       1526909.390       6845050.170
10 0 59818  43890.000000  0        877226.224       1628722.791       6799145.259
10 0 59818  43920.000000  0       1075444.426       1728013.793       6746284.448
10 0 59818  43950.000000  0       1272999.239       1824684.060       6686522.052
10 0 59818  43980.000000  0       1469678.412       1918638.847       6619919.421
10 0 59818  44010.000000  0       1665270.184       2009787.093       6546544.875
10 0 59818  44040.000000  0       1859563.513       2098041.514       6466473.640
10 0 59818  44070.000000  0       2052348.303       2183318.682       6379787.772
10 0 59818  44100.000000  0       2243415.638       2265539.110       6286576.082
10 0 59818  44130.000000  0       2432558.013       2344627.326       6186934.039
10 0 59818  44160.000000  0       2619569.559       2420511.943       6080963.683
10 0 59818  44190.000000  0       2804246.275       2493125.724       5968773.518
10 0 59818  44220.000000  0       2986386.255       2562405.643       5850478.405
10 0 59818  44250.000000  0       3165789.909       2628292.939       5726199.441
10 0 59818  44280.000000  0       3342260.188       2690733.164       5596063.845
10 0 59818  44310.000000  0       3515602.803       2749676.235       5460204.818
10 0 59818  44340.000000  0       3685626.440       2805076.465       5318761.417
10 0 59818  44370.000000  0       3852142.973       2856892.603       5171878.411
10 0 59818  44400.000000  0       4014967.679       2905087.861       5019706.138
10 0 59818  44430.000000  0       4173919.445       2949629.940       4862400.352
10 0 59818  44460.000000  0       4328820.977       2990491.042       4700122.066
10 0 59818  44490.000000  0       4479498.996       3027647.887       4533037.392
10 0 59818  44520.000000  0       4625784.450       3061081.720       4361317.377
10 0 59818  44550.000000  0       4767512.713       3090778.320       4185137.829
10 0 59818  44580.000000  0       4904523.782       3116727.994       4004679.126
10 0 59818  44610.000000  0       5036662.468       3138925.569       3820126.020
10 0 59818  44640.000000  0       5163778.561       3157370.366       3631667.439
10 0 59818  44670.000000  0       5285727.001       3172066.178       3439496.296
10 0 59818  44700.000000  0       5402368.049       3183021.241       3243809.303
10 0 59818  44730.000000  0       5513567.451       3190248.215       3044806.758
10 0 59818  44760.000000  0       5619196.601       3193764.140       2842692.343
10 0 59818  44790.000000  0       5719132.691       3193590.399       2637672.906
10 0 59818  44820.000000  0       5813258.859       3189752.671       2429958.248
10 0 59818  44850.000000  0       5901464.329       3182280.876       2219760.901
10 0 59818  44880.000000  0       5983644.542       3171209.117       2007295.906
10 0 59818  44910.000000  0       6059701.287       3156575.620       1792780.588
10 0 59818  44940.000000  0       6129542.812       3138422.665       1576434.325
10 0 59818  44970.000000  0       6193083.943       3116796.512       1358478.318
10 0 59818  45000.000000  0       6250246.183       3091747.324       1139135.355
10 0 59818  45030.000000  0       6300957.804       3063329.084        918629.578
10 0 59818  45060.000000  0       6345153.940       3031599.507        697186.250
10 0 59818  45090.000000  0       6382776.659       2996619.950        475031.512
10 0 59818  45120.000000  0       6413775.040       2958455.315        252392.150
10 0 59818  45150.000000  0       6438105.232       2917173.952         29495.358
10 0 59818  45180.000000  0       6455730.511       2872847.544       -193431.509
10 0 59818  45210.000000  0       6466621.324       2825551.008       -416161.163
10 0 59818  45240.000000  0       6470755.317       2775362.374       -638466.624
10 0 59818  45270.000000  0       6468117.375       2722362.680       -860121.450
10 0 59818  45300.000000  0       6458699.636       2666635.849      -1080899.968
10 0 59818  45330.000000  0       6442501.512       2608268.579      -1300577.511
10 0 59818  45360.000000  0       6419529.695       2547350.213      -1518930.646
10 0 59818  45390.000000  0       6389798.156       2483972.621      -1735737.415
10 0 59818  45420.000000  0       6353328.132       2418230.064      -1950777.559
10 0 59818  45450.000000  0       6310148.101       2350219.064      -2163832.747
10 0 59818  45480.000000  0       6260293.758       2280038.271      -2374686.799
10 0 59818  45510.000000  0       6203807.974       2207788.324      -2583125.905
10 0 59818  45540.000000  0       6140740.750       2133571.720      -2788938.840
10 0 59818  45570.000000  0       6071149.173       2057492.669      -2991917.177
10 0 59818  45600.000000  0       5995097.349       1979656.959      -3191855.499
10 0 59818  45630.000000  0       5912656.336       1900171.815      -3388551.607
10 0 59818  45660.000000  0       5823904.073       1819145.751      -3581806.718
10 0 59818  45690.000000  0       5728925.287       1736688.433      -3771425.668
10 0 59818  45720.000000  0       5627811.411       1652910.531      -3957217.102
10 0 59818  45750.000000  0       5520660.474       1567923.576      -4138993.662
10 0 59818  45780.000000  0       5407577.002       1481839.819      -4316572.171
10 0 59818  45810.000000  0       5288671.902       1394772.086      -4489773.803
10 0 59818  45840.000000  0       5164062.346       1306833.639      -4658424.260
10 0 59818  45870.000000  0       5033871.648       1218138.031      -4822353.935
10 0 59818  45900.000000  0       4898229.137       1128798.968      -4981398.074
10 0 59818  45930.000000  0       4757270.015       1038930.168      -5135396.939
10 0 59818  45960.000000  0       4611135.224        948645.217      -5284195.950
10 0 59818  45990.000000  0       4459971.288        858057.438      -5427645.839
10 0 59818  46020.000000  0       4303930.170        767279.747      -5565602.781
10 0 59818  46050.000000  0       4143169.111        676424.522      -5697928.535
10 0 59818  46080.000000  0       3977850.465        585603.469      -5824490.570
10 0 59818  46110.000000  0       3808141.535        494927.489      -5945162.189
10 0 59818  46140.000000  0       3634214.394        404506.550      -6059822.650
10 0 59818  46170.000000  0       3456245.707        314449.555      -6168357.265
10 0 59818  46200.000000  0       3274416.554        224864.223      -6270657.514
10 0 59818  46230.000000  0       3088912.244        135856.957      -6366621.134
10 0 59818  46260.000000  0       2899922.126         47532.727      -6456152.215
10 0 59818  46290.000000  0       2707639.398        -40005.048      -6539161.289
10 0 59818  46320.000000  0       2512260.910       -126654.618      -6615565.403
10 0 59818  46350.000000  0       2313986.970       -212316.014      -6685288.198
10 0 59818  46380.000000  0       2113021.141       -296891.159      -6748259.976
10 0 59818  46410.000000  0       1909570.036       -380283.976      -6804417.767
10 0 59818  46440.000000  0       1703843.111       -462400.495      -6853705.387
10 0 59818  46470.000000  0       1496052.450       -543148.956      -6896073.490
10 0 59818  46500.000000  0       1286412.550       -622439.903      -6931479.608
10 0 59818  46530.000000  0       1075140.100       -700186.286      -6959888.189
10 0 59818  46560.000000  0        862453.773       -776303.544      -6981270.627
10 0 59818  46590.000000  0        648573.998       -850709.698      -6995605.288
10 0 59818  46620.000000  0        433722.744       -923325.438      -7002877.527
10 0 59818  46650.000000  0        218123.298       -994074.201      -7003079.705
10 0 59818  46680.000000  0          2000.041      -1062882.248      -6996211.198
10 0 59818  46710.000000  0       -214421.778      -1129678.744      -6982278.397
10 0 59818  46740.000000  0       -430916.272      -1194395.826      -6961294.712
10 0 59818  46770.000000  0       -647257.141      -1256968.673      -6933280.559
99
